COMMENT,ORIGINATOR,NORAD_CAT_ID,OBJECT_NAME,OBJECT_TYPE,CLASSIFICATION_TYPE,INTLDES,EPOCH,EPOCH_MICROSECONDS,MEAN_MOTION,ECCENTRICITY,INCLINATION,RA_OF_ASC_NODE,ARG_OF_PERICENTER,MEAN_ANOMALY,EPHEMERIS_TYPE,ELEMENT_SET_NO,REV_AT_EPOCH,BSTAR,MEAN_MOTION_DOT,MEAN_MOTION_DDOT,FILE,TLE_LINE0,TLE_LINE1,TLE_LINE2,OBJECT_ID,OBJECT_NUMBER,SEMIMAJOR_AXIS,PERIOD,APOGEE,PERIGEE,DECAYED
"GENERATED VIA SPACETRACK.ORG API","18 SPCS","55101","SPACEBEE-159","PAYLOAD","U","23001CW","2024-02-06 03:03:48","458016","15.34411728","0.0011293","97.4425","102.019","259.8011","100.1958","0","999","6079","0.001257","0.00042073","0","4181108","0 SPACEBEE-159","1 55101U 23001CW  24037.12764419  .00042073  00000-0  12570-2 0  9991","2 55101  97.4425 102.0190 0011293 259.8011 100.1958 15.34411728 60792","2023-001CW","55101","6840.805","93.847","470.396","454.945","0"
"GENERATED VIA SPACETRACK.ORG API","18 SPCS","55101","SPACEBEE-159","PAYLOAD","U","23001CW","2024-02-06 17:08:57","556320","15.34473553","0.0011247","97.4426","102.611","257.6151","102.3833","0","999","6088","0.0014487","0.00048638","0","4181420","0 SPACEBEE-159","1 55101U 23001CW  24037.71455505  .00048638  00000-0  14487-2 0  9991","2 55101  97.4426 102.6110 0011247 257.6151 102.3833 15.34473553 60881","2023-001CW","55101","6840.622","93.843","470.180","454.793","0"
"GENERATED VIA SPACETRACK.ORG API","18 SPCS","55101","SPACEBEE-159","PAYLOAD","U","23001CW","2024-02-06 17:08:57","556320","15.34473553","0.0011247","97.4426","102.611","257.6151","102.3833","0","999","6088","0.0014487","0.00048638","0","4181430","0 SPACEBEE-159","1 55101U 23001CW  24037.71455505  .00048638  00000-0  14487-2 0  9991","2 55101  97.4426 102.6110 0011247 257.6151 102.3833 15.34473553 60881","2023-001CW","55101","6840.622","93.843","470.180","454.793","0"
"GENERATED VIA SPACETRACK.ORG API","18 SPCS","55101","SPACEBEE-159","PAYLOAD","U","23001CW","2024-02-07 04:06:16","613568","15.34521218","0.0011156","97.4423","103.071","255.5067","104.4938","0","999","6095","0.001487","0.00050008","0","4182068","0 SPACEBEE-159","1 55101U 23001CW  24038.17102562  .00050008  00000-0  14870-2 0  9994","2 55101  97.4423 103.0710 0011156 255.5067 104.4938 15.34521218 60950","2023-001CW","55101","6840.480","93.840","469.976","454.714","0"
"GENERATED VIA SPACETRACK.ORG API","18 SPCS","55101","SPACEBEE-159","PAYLOAD","U","23001CW","2024-02-07 21:19:09","973632","15.3458794","0.0011192","97.4425","103.7946","252.5604","107.4416","0","999","6106","0.001411","0.00047534","0","4182370","0 SPACEBEE-159","1 55101U 23001CW  24038.88830988  .00047534  00000-0  14110-2 0  9999","2 55101  97.4425 103.7946 0011192 252.5604 107.4416 15.34587940 61065","2023-001CW","55101","6840.282","93.836","469.802","454.491","0"
"GENERATED VIA SPACETRACK.ORG API","18 SPCS","55101","SPACEBEE-159","PAYLOAD","U","23001CW","2024-02-08 02:00:51","346368","15.34606706","0.0011191","97.4423","103.992","251.9771","108.0252","0","999","6109","0.0014252","0.00048045","0","4182634","0 SPACEBEE-159","1 55101U 23001CW  24039.08392762  .00048045  00000-0  14252-2 0  9990","2 55101  97.4423 103.9920 0011191 251.9771 108.0252 15.34606706 61094","2023-001CW","55101","6840.226","93.835","469.746","454.436","0"
"GENERATED VIA SPACETRACK.ORG API","18 SPCS","55101","SPACEBEE-159","PAYLOAD","U","23001CW","2024-02-08 02:00:51","346368","15.34606706","0.0011191","97.4423","103.992","251.9771","108.0252","0","999","6109","0.0014252","0.00048045","0","4182958","0 SPACEBEE-159","1 55101U 23001CW  24039.08392762  .00048045  00000-0  14252-2 0  9990","2 55101  97.4423 103.9920 0011191 251.9771 108.0252 15.34606706 61094","2023-001CW","55101","6840.226","93.835","469.746","454.436","0"
"GENERATED VIA SPACETRACK.ORG API","18 SPCS","55101","SPACEBEE-159","PAYLOAD","U","23001CW","2024-02-08 17:39:47","640384","15.34671797","0.0011282","97.4423","104.6503","248.5615","111.4424","0","999","6119","0.001474","0.00049809","0","4183231","0 SPACEBEE-159","1 55101U 23001CW  24039.73596806  .00049809  00000-0  14740-2 0  9998","2 55101  97.4423 104.6503 0011282 248.5615 111.4424 15.34671797 61191","2023-001CW","55101","6840.033","93.831","469.614","454.181","0"
"GENERATED VIA SPACETRACK.ORG API","18 SPCS","55101","SPACEBEE-159","PAYLOAD","U","23001CW","2024-02-09 03:03:08","269056","15.34713986","0.0011289","97.4421","105.0448","247.4407","112.5642","0","999","6125","0.0015752","0.0005333","0","4183532","0 SPACEBEE-159","1 55101U 23001CW  24040.12717904  .00053330  00000-0  15752-2 0  9995","2 55101  97.4421 105.0448 0011289 247.4407 112.5642 15.34713986 61254","2023-001CW","55101","6839.907","93.829","469.494","454.051","0"
"GENERATED VIA SPACETRACK.ORG API","18 SPCS","55101","SPACEBEE-159","PAYLOAD","U","23001CW","2024-02-09 03:03:08","269056","15.34713986","0.0011289","97.4421","105.0448","247.4407","112.5642","0","999","6125","0.0015752","0.0005333","0","4183826","0 SPACEBEE-159","1 55101U 23001CW  24040.12717904  .00053330  00000-0  15752-2 0  9995","2 55101  97.4421 105.0448 0011289 247.4407 112.5642 15.34713986 61254","2023-001CW","55101","6839.907","93.829","469.494","454.051","0"
"GENERATED VIA SPACETRACK.ORG API","18 SPCS","55101","SPACEBEE-159","PAYLOAD","U","23001CW","2024-02-10 04:05:19","54752","15.34813543","0.0011287","97.4418","106.0971","243.1173","116.8917","0","999","6141","0.0013566","0.00046019","0","4184435","0 SPACEBEE-159","1 55101U 23001CW  24041.17035943  .00046019  00000-0  13566-2 0  9994","2 55101  97.4418 106.0971 0011287 243.1173 116.8917 15.34813543 61413","2023-001CW","55101","6839.611","93.822","469.196","453.757","0"
"GENERATED VIA SPACETRACK.ORG API","18 SPCS","55101","SPACEBEE-159","PAYLOAD","U","23001CW","2024-02-10 04:05:19","54752","15.34813543","0.0011287","97.4418","106.0971","243.1173","116.8917","0","999","6141","0.0013566","0.00046019","0","4184737","0 SPACEBEE-159","1 55101U 23001CW  24041.17035943  .00046019  00000-0  13566-2 0  9994","2 55101  97.4418 106.0971 0011287 243.1173 116.8917 15.34813543 61413","2023-001CW","55101","6839.611","93.822","469.196","453.757","0"
"GENERATED VIA SPACETRACK.ORG API","18 SPCS","55101","SPACEBEE-159","PAYLOAD","U","23001CW","2024-02-10 16:36:22","186944","15.3486685","0.0011254","97.4412","106.6234","240.8506","119.1612","0","999","6149","0.0014183","0.00048211","0","4185013","0 SPACEBEE-159","1 55101U 23001CW  24041.69192346  .00048211  00000-0  14183-2 0  9994","2 55101  97.4412 106.6234 0011254 240.8506 119.1612 15.34866850 61498","2023-001CW","55101","6839.453","93.819","469.015","453.621","0"
"GENERATED VIA SPACETRACK.ORG API","18 SPCS","55101","SPACEBEE-159","PAYLOAD","U","23001CW","2024-02-11 03:33:31","182912","15.34918515","0.0011293","97.441","107.0836","239.2406","120.7726","0","999","6156","0.0017146","0.00058474","0","4185283","0 SPACEBEE-159","1 55101U 23001CW  24042.14827758  .00058474  00000-0  17146-2 0  9991","2 55101  97.4410 107.0836 0011293 239.2406 120.7726 15.34918515 61561","2023-001CW","55101","6839.300","93.816","468.888","453.441","0"
"GENERATED VIA SPACETRACK.ORG API","18 SPCS","55101","SPACEBEE-159","PAYLOAD","U","23001CW","2024-02-11 09:49:01","431840","15.34944214","0.0011304","97.4408","107.3468","238.0918","121.9226","0","999","6160","0.0016295","0.00055592","0","4185591","0 SPACEBEE-159","1 55101U 23001CW  24042.40904435  .00055592  00000-0  16295-2 0  9990","2 55101  97.4408 107.3468 0011304 238.0918 121.9226 15.34944214 61608","2023-001CW","55101","6839.223","93.814","468.819","453.357","0"
"GENERATED VIA SPACETRACK.ORG API","18 SPCS","55101","SPACEBEE-159","PAYLOAD","U","23001CW","2024-02-11 17:38:23","672544","15.34984285","0.0011308","97.4405","107.6758","237.4169","122.5983","0","999","6165","0.0017534","0.00059935","0","4185871","0 SPACEBEE-159","1 55101U 23001CW  24042.73499621  .00059935  00000-0  17534-2 0  9994","2 55101  97.4405 107.6758 0011308 237.4169 122.5983 15.34984285 61659","2023-001CW","55101","6839.104","93.812","468.703","453.236","0"
"GENERATED VIA SPACETRACK.ORG API","18 SPCS","55101","SPACEBEE-159","PAYLOAD","U","23001CW","2024-02-12 03:01:37","306272","15.35033162","0.0011326","97.4406","108.0702","235.7372","124.2799","0","999","6171","0.0015444","0.00052815","0","4186491","0 SPACEBEE-159","1 55101U 23001CW  24043.12612623  .00052815  00000-0  15444-2 0  9995","2 55101  97.4406 108.0702 0011326 235.7372 124.2799 15.35033162 61712","2023-001CW","55101","6838.959","93.809","468.570","453.078","0"
"GENERATED VIA SPACETRACK.ORG API","18 SPCS","55101","SPACEBEE-159","PAYLOAD","U","23001CW","2024-02-12 17:06:25","839648","15.3510119","0.0011268","97.4402","108.6624","233.864","126.1561","0","999","6180","0.001574","0.00053952","0","4186761","0 SPACEBEE-159","1 55101U 23001CW  24043.71279907  .00053952  00000-0  15740-2 0  9996","2 55101  97.4402 108.6624 0011268 233.8640 126.1561 15.35101190 61804","2023-001CW","55101","6838.757","93.805","468.328","452.916","0"
"GENERATED VIA SPACETRACK.ORG API","18 SPCS","55101","SPACEBEE-159","PAYLOAD","U","23001CW","2024-02-12 17:06:25","839648","15.3510119","0.0011268","97.4402","108.6624","233.864","126.1561","0","999","6180","0.001574","0.00053952","0","4186778","0 SPACEBEE-159","1 55101U 23001CW  24043.71279907  .00053952  00000-0  15740-2 0  9996","2 55101  97.4402 108.6624 0011268 233.8640 126.1561 15.35101190 61804","2023-001CW","55101","6838.757","93.805","468.328","452.916","0"
"GENERATED VIA SPACETRACK.ORG API","18 SPCS","55101","SPACEBEE-159","PAYLOAD","U","23001CW","2024-02-13 10:18:55","470816","15.35180812","0.0011314","97.4397","109.3862","230.7128","129.3113","0","999","6191","0.0015935","0.00054767","0","4187441","0 SPACEBEE-159","1 55101U 23001CW  24044.42980869  .00054767  00000-0  15935-2 0  9992","2 55101  97.4397 109.3862 0011314 230.7128 129.3113 15.35180812 61916","2023-001CW","55101","6838.520","93.800","468.123","452.648","0"
